{
  "norad_id": 53247,
  "name": "STARLINK-4061",
  "history": [
    {
      "epoch": "2026-03-28T19:05:34.329408Z",
      "apogee_km": 540.526567249146,
      "perigee_km": 538.8946469986258,
      "latitude_deg": -3.1301064658588986e-05,
      "longitude_deg": 0.9294853610886197,
      "height_km": 540.4133981638485,
      "semi_major_axis_km": 6917.847607123886,
      "eccentricity": 0.00011795,
      "inclination_deg": 53.2157,
      "raan_deg": 113.5334,
      "arg_perigee_deg": 76.3152,
      "mean_anomaly_deg": 283.7971,
      "mean_motion_rev_day": 15.08850725
    },
    {
      "epoch": "2026-03-29T01:27:06.756768Z",
      "apogee_km": 540.5477103992016,
      "perigee_km": 538.8722078656992,
      "latitude_deg": -2.0672586804466327e-05,
      "longitude_deg": -95.90637594732122,
      "height_km": 540.4167165631202,
      "semi_major_axis_km": 6917.84695913245,
      "eccentricity": 0.0001211,
      "inclination_deg": 53.2156,
      "raan_deg": 112.3438,
      "arg_perigee_deg": 76.9605,
      "mean_anomaly_deg": 283.1522,
      "mean_motion_rev_day": 15.08850937
    },
    {
      "epoch": "2026-03-30T04:28:39.650592Z",
      "apogee_km": 540.5784589311543,
      "perigee_km": 538.8586800365802,
      "latitude_deg": 8.215241269568706e-06,
      "longitude_deg": -147.45862169882548,
      "height_km": 540.4223177202773,
      "semi_major_axis_km": 6917.855569483867,
      "eccentricity": 0.0001243,
      "inclination_deg": 53.2149,
      "raan_deg": 107.2885,
      "arg_perigee_deg": 77.1047,
      "mean_anomaly_deg": 283.0084,
      "mean_motion_rev_day": 15.0884812
    },
    {
      "epoch": "2026-03-30T06:04:02.752896Z",
      "apogee_km": 540.5576437033187,
      "perigee_km": 538.8737000059355,
      "latitude_deg": 4.360378449981307e-05,
      "longitude_deg": -171.66774364752632,
      "height_km": 540.4354984544007,
      "semi_major_axis_km": 6917.852671854627,
      "eccentricity": 0.00012171,
      "inclination_deg": 53.2157,
      "raan_deg": 106.9909,
      "arg_perigee_deg": 77.939,
      "mean_anomaly_deg": 282.1739,
      "mean_motion_rev_day": 15.08849068
    },
    {
      "epoch": "2026-03-30T07:39:25.784352Z",
      "apogee_km": 540.5480359596795,
      "perigee_km": 538.8794503604286,
      "latitude_deg": 1.4994996448478286e-05,
      "longitude_deg": 164.12328282584917,
      "height_km": 540.4528957521272,
      "semi_major_axis_km": 6917.850743160054,
      "eccentricity": 0.0001206,
      "inclination_deg": 53.2157,
      "raan_deg": 106.6932,
      "arg_perigee_deg": 79.1799,
      "mean_anomaly_deg": 280.9329,
      "mean_motion_rev_day": 15.08849699
    },
    {
      "epoch": "2026-03-31T07:30:12.635136Z",
      "apogee_km": 540.5598843589041,
      "perigee_km": 538.8871456863717,
      "latitude_deg": 1.2206200271860124e-06,
      "longitude_deg": 160.98792751937142,
      "height_km": 540.4910069393095,
      "semi_major_axis_km": 6917.860515022638,
      "eccentricity": 0.0001209,
      "inclination_deg": 53.216,
      "raan_deg": 102.2324,
      "arg_perigee_deg": 81.1761,
      "mean_anomaly_deg": 278.9368,
      "mean_motion_rev_day": 15.08846502
    },
    {
      "epoch": "2026-04-01T16:53:17.739456Z",
      "apogee_km": 540.5486011851344,
      "perigee_km": 538.9035333477386,
      "latitude_deg": -1.1563884762800973e-05,
      "longitude_deg": 12.600588832849605,
      "height_km": 540.4452588983851,
      "semi_major_axis_km": 6917.863067266437,
      "eccentricity": 0.0001189,
      "inclination_deg": 53.2163,
      "raan_deg": 95.9874,
      "arg_perigee_deg": 77.5964,
      "mean_anomaly_deg": 282.5161,
      "mean_motion_rev_day": 15.08845667
    },
    {
      "epoch": "2026-04-02T07:11:47.130720Z",
      "apogee_km": 540.722534268336,
      "perigee_km": 538.8158209676603,
      "latitude_deg": -3.757459556018453e-05,
      "longitude_deg": 154.72019104387817,
      "height_km": 540.8946399828004,
      "semi_major_axis_km": 6917.906177617998,
      "eccentricity": 0.00013781,
      "inclination_deg": 53.2182,
      "raan_deg": 93.3171,
      "arg_perigee_deg": 103.9383,
      "mean_anomaly_deg": 256.1762,
      "mean_motion_rev_day": 15.08831563
    },
    {
      "epoch": "2026-04-03T16:34:53.039424Z",
      "apogee_km": 540.6173453729034,
      "perigee_km": 538.8809559490883,
      "latitude_deg": -8.573999527134744e-06,
      "longitude_deg": 6.3240212529343856,
      "height_km": 540.8694676774531,
      "semi_major_axis_km": 6917.886150660996,
      "eccentricity": 0.0001255,
      "inclination_deg": 53.217,
      "raan_deg": 87.0666,
      "arg_perigee_deg": 104.9828,
      "mean_anomaly_deg": 255.1303,
      "mean_motion_rev_day": 15.08838115
    },
    {
      "epoch": "2026-04-04T08:28:44.956704Z",
      "apogee_km": 540.679919307202,
      "perigee_km": 538.8650749297285,
      "latitude_deg": 2.0792804628264143e-05,
      "longitude_deg": 124.23032313910244,
      "height_km": 540.5827063886314,
      "semi_major_axis_km": 6917.909497118465,
      "eccentricity": 0.00013117,
      "inclination_deg": 53.2171,
      "raan_deg": 84.0921,
      "arg_perigee_deg": 84.5912,
      "mean_anomaly_deg": 275.523,
      "mean_motion_rev_day": 15.08830477
    },
    {
      "epoch": "2026-04-05T08:19:32.083968Z",
      "apogee_km": 540.648469974727,
      "perigee_km": 538.8364006354432,
      "latitude_deg": -4.550467263269529e-05,
      "longitude_deg": 121.09487116347984,
      "height_km": 540.5565062476494,
      "semi_major_axis_km": 6917.879435305084,
      "eccentricity": 0.00013097,
      "inclination_deg": 53.2161,
      "raan_deg": 79.6324,
      "arg_perigee_deg": 84.8339,
      "mean_anomaly_deg": 275.2802,
      "mean_motion_rev_day": 15.08840312
    },
    {
      "epoch": "2026-04-06T04:59:32.897760Z",
      "apogee_km": 540.6426186502731,
      "perigee_km": 538.8402346049988,
      "latitude_deg": -9.406515649021698e-06,
      "longitude_deg": 166.37694639407707,
      "height_km": 540.5828160455857,
      "semi_major_axis_km": 6917.878426627635,
      "eccentricity": 0.00013027,
      "inclination_deg": 53.2168,
      "raan_deg": 75.7666,
      "arg_perigee_deg": 86.5432,
      "mean_anomaly_deg": 273.5709,
      "mean_motion_rev_day": 15.08840642
    },
    {
      "epoch": "2026-04-07T08:01:05.966112Z",
      "apogee_km": 540.6866813032084,
      "perigee_km": 538.7773494549638,
      "latitude_deg": -2.081630793887428e-05,
      "longitude_deg": 114.82373785000546,
      "height_km": 540.6217005844428,
      "semi_major_axis_km": 6917.869015379086,
      "eccentricity": 0.000138,
      "inclination_deg": 53.2169,
      "raan_deg": 70.7111,
      "arg_perigee_deg": 89.6432,
      "mean_anomaly_deg": 270.4718,
      "mean_motion_rev_day": 15.08843721
    },
    {
      "epoch": "2026-04-08T07:51:53.822592Z",
      "apogee_km": 540.7329440198291,
      "perigee_km": 538.7971766653045,
      "latitude_deg": -3.6264896486127755e-05,
      "longitude_deg": 111.68397523624687,
      "height_km": 540.6572939050833,
      "semi_major_axis_km": 6917.902060342567,
      "eccentricity": 0.00013991,
      "inclination_deg": 53.2173,
      "raan_deg": 66.2501,
      "arg_perigee_deg": 89.7981,
      "mean_anomaly_deg": 270.3171,
      "mean_motion_rev_day": 15.0883291
    },
    {
      "epoch": "2026-04-09T14:04:13.115424Z",
      "apogee_km": 540.7199320295249,
      "perigee_km": 538.7690894434973,
      "latitude_deg": -5.581978738544904e-05,
      "longitude_deg": 11.71318009648186,
      "height_km": 540.6256841775883,
      "semi_major_axis_km": 6917.881510736511,
      "eccentricity": 0.000141,
      "inclination_deg": 53.2181,
      "raan_deg": 60.6002,
      "arg_perigee_deg": 89.1455,
      "mean_anomaly_deg": 270.9698,
      "mean_motion_rev_day": 15.08839633
    }
  ]
}